STARLINK-4208           
1 52844U 22062Q   26068.27171208 -.00001456  00000+0 -73432-4 0  9995
2 52844  53.2196  35.9969 0001393  90.0367 270.0785 15.08834237205729
KUIPER-00148            
1 65769U 25217H   26068.27522507  .00015783  00000+0  98730-3 0  9995
2 65769  51.8794  26.5769 0008108 351.8096   8.2745 15.09536529 25078
